CCSDS_OMM_VERS = 2.0
CREATION_DATE  = 
ORIGINATOR     = 

OBJECT_NAME    = STARLINK-36662
OBJECT_ID      = 2026-033M
CENTER_NAME    = EARTH
REF_FRAME      = TEME
TIME_SYSTEM    = UTC
MEAN_ELEMENT_THEORY = SGP/SGP4

EPOCH          = 2026-03-07T14:34:52.827168
MEAN_MOTION    = 15.84483190
ECCENTRICITY   = .00018935
INCLINATION    = 42.9958
RA_OF_ASC_NODE = 283.3280
ARG_OF_PERICENTER = 285.2613
MEAN_ANOMALY   = 74.8050

EPHEMERIS_TYPE = 0
CLASSIFICATION_TYPE = U
NORAD_CAT_ID   = 67832
ELEMENT_SET_NO = 999
REV_AT_EPOCH   = 430
BSTAR          = .12773792E-2
MEAN_MOTION_DOT = .31285E-2
MEAN_MOTION_DDOT = 0

CCSDS_OMM_VERS = 2.0
CREATION_DATE  = 
ORIGINATOR     = 

OBJECT_NAME    = STARLINK-36659
OBJECT_ID      = 2026-033N
CENTER_NAME    = EARTH
REF_FRAME      = TEME
TIME_SYSTEM    = UTC
MEAN_ELEMENT_THEORY = SGP/SGP4

EPOCH          = 2026-03-07T14:27:50.486688
MEAN_MOTION    = 15.82039938
ECCENTRICITY   = .00021366
INCLINATION    = 42.9975
RA_OF_ASC_NODE = 284.1978
ARG_OF_PERICENTER = 297.3072
MEAN_ANOMALY   = 62.7582

EPHEMERIS_TYPE = 0
CLASSIFICATION_TYPE = U
NORAD_CAT_ID   = 67833
ELEMENT_SET_NO = 999
REV_AT_EPOCH   = 429
BSTAR          = .10386776E-2
MEAN_MOTION_DOT = .224188E-2
MEAN_MOTION_DDOT = 0

CCSDS_OMM_VERS = 2.0
CREATION_DATE  = 
ORIGINATOR     = 

OBJECT_NAME    = STARLINK-36655
OBJECT_ID      = 2026-033P
CENTER_NAME    = EARTH
REF_FRAME      = TEME
TIME_SYSTEM    = UTC
MEAN_ELEMENT_THEORY = SGP/SGP4

EPOCH          = 2026-03-07T15:57:39.886272
MEAN_MOTION    = 15.82129122
ECCENTRICITY   = .00018916
INCLINATION    = 42.9974
RA_OF_ASC_NODE = 283.8045
ARG_OF_PERICENTER = 231.1275
MEAN_ANOMALY   = 128.9428

EPHEMERIS_TYPE = 0
CLASSIFICATION_TYPE = U
NORAD_CAT_ID   = 67834
ELEMENT_SET_NO = 999
REV_AT_EPOCH   = 430
BSTAR          = .23373851E-2
MEAN_MOTION_DOT = .525483E-2
MEAN_MOTION_DDOT = 0

CCSDS_OMM_VERS = 2.0
CREATION_DATE  = 
ORIGINATOR     = 

OBJECT_NAME    = STARLINK-36657
OBJECT_ID      = 2026-033Q
CENTER_NAME    = EARTH
REF_FRAME      = TEME
TIME_SYSTEM    = UTC
MEAN_ELEMENT_THEORY = SGP/SGP4

EPOCH          = 2026-03-07T14:25:41.014560
MEAN_MOTION    = 15.82437477
ECCENTRICITY   = .00037276
INCLINATION    = 42.9971
RA_OF_ASC_NODE = 284.1853
ARG_OF_PERICENTER = 256.1220
MEAN_ANOMALY   = 103.9237

EPHEMERIS_TYPE = 0
CLASSIFICATION_TYPE = U
NORAD_CAT_ID   = 67835
ELEMENT_SET_NO = 999
REV_AT_EPOCH   = 429
BSTAR          = .3778353E-2
MEAN_MOTION_DOT = .900793E-2
MEAN_MOTION_DDOT = 0

CCSDS_OMM_VERS = 2.0
CREATION_DATE  = 
ORIGINATOR     = 

OBJECT_NAME    = STARLINK-36650
OBJECT_ID      = 2026-033R
CENTER_NAME    = EARTH
REF_FRAME      = TEME
TIME_SYSTEM    = UTC
MEAN_ELEMENT_THEORY = SGP/SGP4

EPOCH          = 2026-03-07T15:55:30.631008
MEAN_MOTION    = 15.81994899
ECCENTRICITY   = .00014591
INCLINATION    = 42.9974
RA_OF_ASC_NODE = 283.7918
ARG_OF_PERICENTER = 242.5310
MEAN_ANOMALY   = 117.5413

EPHEMERIS_TYPE = 0
CLASSIFICATION_TYPE = U
NORAD_CAT_ID   = 67836
ELEMENT_SET_NO = 999
REV_AT_EPOCH   = 430
BSTAR          = .16950721E-2
MEAN_MOTION_DOT = .371788E-2
MEAN_MOTION_DDOT = 0

CCSDS_OMM_VERS = 2.0
CREATION_DATE  = 
ORIGINATOR     = 

OBJECT_NAME    = STARLINK-36649
OBJECT_ID      = 2026-033S
CENTER_NAME    = EARTH
REF_FRAME      = TEME
TIME_SYSTEM    = UTC
MEAN_ELEMENT_THEORY = SGP/SGP4

EPOCH          = 2026-03-07T15:54:25.894080
MEAN_MOTION    = 15.81998884
ECCENTRICITY   = .00018691
INCLINATION    = 42.9976
RA_OF_ASC_NODE = 283.7850
ARG_OF_PERICENTER = 227.9805
MEAN_ANOMALY   = 132.0908

EPHEMERIS_TYPE = 0
CLASSIFICATION_TYPE = U
NORAD_CAT_ID   = 67837
ELEMENT_SET_NO = 999
REV_AT_EPOCH   = 430
BSTAR          = .19490834E-2
MEAN_MOTION_DOT = .430619E-2
MEAN_MOTION_DDOT = 0

CCSDS_OMM_VERS = 2.0
CREATION_DATE  = 
ORIGINATOR     = 

OBJECT_NAME    = STARLINK-36654
OBJECT_ID      = 2026-033T
CENTER_NAME    = EARTH
REF_FRAME      = TEME
TIME_SYSTEM    = UTC
MEAN_ELEMENT_THEORY = SGP/SGP4

EPOCH          = 2026-03-07T15:53:21.026688
MEAN_MOTION    = 15.82126960
ECCENTRICITY   = .00040954
INCLINATION    = 42.9974
RA_OF_ASC_NODE = 283.7798
ARG_OF_PERICENTER = 282.6777
MEAN_ANOMALY   = 77.3637

EPHEMERIS_TYPE = 0
CLASSIFICATION_TYPE = U
NORAD_CAT_ID   = 67838
ELEMENT_SET_NO = 999
REV_AT_EPOCH   = 430
BSTAR          = .21951987E-2
MEAN_MOTION_DOT = .49151E-2
MEAN_MOTION_DDOT = 0

CCSDS_OMM_VERS = 2.0
CREATION_DATE  = 
ORIGINATOR     = 

OBJECT_NAME    = STARLINK-36652
OBJECT_ID      = 2026-033U
CENTER_NAME    = EARTH
REF_FRAME      = TEME
TIME_SYSTEM    = UTC
MEAN_ELEMENT_THEORY = SGP/SGP4

EPOCH          = 2026-03-07T14:21:22.039200
MEAN_MOTION    = 15.82209244
ECCENTRICITY   = .0002074
INCLINATION    = 42.9972
RA_OF_ASC_NODE = 284.1605
ARG_OF_PERICENTER = 267.5669
MEAN_ANOMALY   = 92.4965

EPHEMERIS_TYPE = 0
CLASSIFICATION_TYPE = U
NORAD_CAT_ID   = 67839
ELEMENT_SET_NO = 999
REV_AT_EPOCH   = 429
BSTAR          = .28142381E-2
MEAN_MOTION_DOT = .64408E-2
MEAN_MOTION_DDOT = 0

CCSDS_OMM_VERS = 2.0
CREATION_DATE  = 
ORIGINATOR     = 

OBJECT_NAME    = STARLINK-36651
OBJECT_ID      = 2026-033V
CENTER_NAME    = EARTH
REF_FRAME      = TEME
TIME_SYSTEM    = UTC
MEAN_ELEMENT_THEORY = SGP/SGP4

EPOCH          = 2026-03-07T15:51:11.382624
MEAN_MOTION    = 15.82044185
ECCENTRICITY   = .0001968
INCLINATION    = 42.9982
RA_OF_ASC_NODE = 283.7670
ARG_OF_PERICENTER = 199.7029
MEAN_ANOMALY   = 160.3767

EPHEMERIS_TYPE = 0
CLASSIFICATION_TYPE = U
NORAD_CAT_ID   = 67840
ELEMENT_SET_NO = 999
REV_AT_EPOCH   = 430
BSTAR          = .1746153E-2
MEAN_MOTION_DOT = .384457E-2
MEAN_MOTION_DDOT = 0

CCSDS_OMM_VERS = 2.0
CREATION_DATE  = 
ORIGINATOR     = 

OBJECT_NAME    = STARLINK-36656
OBJECT_ID      = 2026-033W
CENTER_NAME    = EARTH
REF_FRAME      = TEME
TIME_SYSTEM    = UTC
MEAN_ELEMENT_THEORY = SGP/SGP4

EPOCH          = 2026-03-07T15:50:06.744192
MEAN_MOTION    = 15.82129101
ECCENTRICITY   = .0001984
INCLINATION    = 42.9974
RA_OF_ASC_NODE = 283.7616
ARG_OF_PERICENTER = 226.1655
MEAN_ANOMALY   = 133.9053

EPHEMERIS_TYPE = 0
CLASSIFICATION_TYPE = U
NORAD_CAT_ID   = 67841
ELEMENT_SET_NO = 999
REV_AT_EPOCH   = 430
BSTAR          = .25103944E-2
MEAN_MOTION_DOT = .56719E-2
MEAN_MOTION_DDOT = 0

CCSDS_OMM_VERS = 2.0
CREATION_DATE  = 
ORIGINATOR     = 

OBJECT_NAME    = STARLINK-36653
OBJECT_ID      = 2026-033X
CENTER_NAME    = EARTH
REF_FRAME      = TEME
TIME_SYSTEM    = UTC
MEAN_ELEMENT_THEORY = SGP/SGP4

EPOCH          = 2026-03-07T15:49:02.205120
MEAN_MOTION    = 15.82055208
ECCENTRICITY   = .00015672
INCLINATION    = 42.9976
RA_OF_ASC_NODE = 283.7547
ARG_OF_PERICENTER = 203.8855
MEAN_ANOMALY   = 156.1944

EPHEMERIS_TYPE = 0
CLASSIFICATION_TYPE = U
NORAD_CAT_ID   = 67842
ELEMENT_SET_NO = 999
REV_AT_EPOCH   = 430
BSTAR          = .19694728E-2
MEAN_MOTION_DOT = .436584E-2
MEAN_MOTION_DDOT = 0

CCSDS_OMM_VERS = 2.0
CREATION_DATE  = 
ORIGINATOR     = 

OBJECT_NAME    = STARLINK-36589
OBJECT_ID      = 2026-033Y
CENTER_NAME    = EARTH
REF_FRAME      = TEME
TIME_SYSTEM    = UTC
MEAN_ELEMENT_THEORY = SGP/SGP4

EPOCH          = 2026-03-07T15:47:57.126912
MEAN_MOTION    = 15.82125124
ECCENTRICITY   = .00020657
INCLINATION    = 42.9970
RA_OF_ASC_NODE = 283.7494
ARG_OF_PERICENTER = 237.7450
MEAN_ANOMALY   = 122.3222

EPHEMERIS_TYPE = 0
CLASSIFICATION_TYPE = U
NORAD_CAT_ID   = 67843
ELEMENT_SET_NO = 999
REV_AT_EPOCH   = 430
BSTAR          = .16327495E-2
MEAN_MOTION_DOT = .359774E-2
MEAN_MOTION_DDOT = 0

CCSDS_OMM_VERS = 2.0
CREATION_DATE  = 
ORIGINATOR     = 

OBJECT_NAME    = STARLINK-36598
OBJECT_ID      = 2026-033Z
CENTER_NAME    = EARTH
REF_FRAME      = TEME
TIME_SYSTEM    = UTC
MEAN_ELEMENT_THEORY = SGP/SGP4

EPOCH          = 2026-03-07T15:46:52.172256
MEAN_MOTION    = 15.82020781
ECCENTRICITY   = .00019882
INCLINATION    = 42.9972
RA_OF_ASC_NODE = 283.7427
ARG_OF_PERICENTER = 217.4183
MEAN_ANOMALY   = 142.6550

EPHEMERIS_TYPE = 0
CLASSIFICATION_TYPE = U
NORAD_CAT_ID   = 67844
ELEMENT_SET_NO = 999
REV_AT_EPOCH   = 430
BSTAR          = .15428538E-2
MEAN_MOTION_DOT = .337398E-2
MEAN_MOTION_DDOT = 0

CCSDS_OMM_VERS = 2.0
CREATION_DATE  = 
ORIGINATOR     = 

OBJECT_NAME    = STARLINK-36606
OBJECT_ID      = 2026-033AA
CENTER_NAME    = EARTH
REF_FRAME      = TEME
TIME_SYSTEM    = UTC
MEAN_ELEMENT_THEORY = SGP/SGP4

EPOCH          = 2026-03-07T15:45:47.884608
MEAN_MOTION    = 15.82137432
ECCENTRICITY   = .00018613
INCLINATION    = 42.9972
RA_OF_ASC_NODE = 283.7365
ARG_OF_PERICENTER = 242.1083
MEAN_ANOMALY   = 117.9600

EPHEMERIS_TYPE = 0
CLASSIFICATION_TYPE = U
NORAD_CAT_ID   = 67845
ELEMENT_SET_NO = 999
REV_AT_EPOCH   = 430
BSTAR          = .12809232E-2
MEAN_MOTION_DOT = .279663E-2
MEAN_MOTION_DDOT = 0

CCSDS_OMM_VERS = 2.0
CREATION_DATE  = 
ORIGINATOR     = 

OBJECT_NAME    = STARLINK-36658
OBJECT_ID      = 2026-033AB
CENTER_NAME    = EARTH
REF_FRAME      = TEME
TIME_SYSTEM    = UTC
MEAN_ELEMENT_THEORY = SGP/SGP4

EPOCH          = 2026-03-07T15:44:43.604736
MEAN_MOTION    = 15.82412869
ECCENTRICITY   = .00033204
INCLINATION    = 42.9971
RA_OF_ASC_NODE = 283.7304
ARG_OF_PERICENTER = 255.1730
MEAN_ANOMALY   = 104.8774

EPHEMERIS_TYPE = 0
CLASSIFICATION_TYPE = U
NORAD_CAT_ID   = 67846
ELEMENT_SET_NO = 999
REV_AT_EPOCH   = 430
BSTAR          = .36685328E-2
MEAN_MOTION_DOT = .870528E-2
MEAN_MOTION_DDOT = 0

